QIANFAN-25              
1 61558U 24185G   25230.84661091  .00000298  00000+0  17403-3 0  9998
2 61558  88.9758  91.3241 0005771 319.3914  40.6837 14.05761961 53233
QIANFAN-26              
1 61559U 24185H   25230.54755838  .00000207  00000+0  19413-3 0  9992
2 61559  88.9774  92.3087 0006502  21.2498 338.8937 13.77726713 52674
QIANFAN-27              
1 61560U 24185J   25230.85517297  .00000349  00000+0  13726-3 0  9991
2 61560  88.9765  90.5480 0006803 324.6879  35.3864 14.27134880 53639
QIANFAN-28              
1 61561U 24185K   25230.88848746  .00000590  00000+0  23333-3 0  9994
2 61561  88.9782  90.5388 0005853 327.7731  32.3105 14.27705712 53645
QIANFAN-29              
1 61562U 24185L   25230.60629200  .00000147  00000+0  20927-3 0  9991
2 61562  88.9768  93.3283 0011420  35.3587 324.8319 13.50960477 52116
QIANFAN-30              
1 61563U 24185M   25230.56734137  .00000131  00000+0  18674-3 0  9992
2 61563  88.9772  92.8127 0008486  24.4017 335.7534 13.49933188 52395
QIANFAN-31              
1 61564U 24185N   25230.55425705  .00000091  00000+0  10904-3 0  9993
2 61564  88.9756  92.8001 0008127  23.2889 336.8632 13.57907927 52397
QIANFAN-32              
1 61565U 24185P   25230.89658869  .00000142  00000+0  20258-3 0  9990
2 61565  88.9816  92.8780 0010939  43.7544 316.4472 13.50686474 52411
